[{"OBJECT_NAME":"STARLINK-6380","OBJECT_ID":"2023-099S","EPOCH":"2026-03-09T12:33:16.917408","MEAN_MOTION":15.02540942,"ECCENTRICITY":0.00014676,"INCLINATION":43.0018,"RA_OF_ASC_NODE":249.6909,"ARG_OF_PERICENTER":272.2742,"MEAN_ANOMALY":87.7932,"EPHEMERIS_TYPE":0,"CLASSIFICATION_TYPE":"U","NORAD_CAT_ID":57344,"ELEMENT_SET_NO":999,"REV_AT_EPOCH":14609,"BSTAR":-0.00024606554,"MEAN_MOTION_DOT":-3.526e-5,"MEAN_MOTION_DDOT":0},{"OBJECT_NAME":"CZ-6A DEB","OBJECT_ID":"2024-140ZQ","EPOCH":"2026-03-09T07:41:20.503680","MEAN_MOTION":14.88666488,"ECCENTRICITY":0.01239144,"INCLINATION":88.9332,"RA_OF_ASC_NODE":275.1602,"ARG_OF_PERICENTER":122.3295,"MEAN_ANOMALY":239.0003,"EPHEMERIS_TYPE":0,"CLASSIFICATION_TYPE":"U","NORAD_CAT_ID":61458,"ELEMENT_SET_NO":999,"REV_AT_EPOCH":8241,"BSTAR":0.001542641,"MEAN_MOTION_DOT":0.00016654,"MEAN_MOTION_DDOT":0}]
